{
  "type": "FeatureCollection",
  "features": [
    {
      "type": "Feature",
      "properties": {
        "norad_id": 28899,
        "name": "INMARSAT 4-F2 (SOUTHPAN/PRN 122)",
        "group": "gnss",
        "lat": 3.3400104581300423,
        "lon": 86.8003668113247,
        "alt_km": 35797.23034243784,
        "timestamp": "2025-12-14T14:39:29.612333+00:00",
        "meta_object_name": "INMARSAT 4-F2 (SOUTHPAN/PRN 122)",
        "meta_object_id": "2005-044A",
        "meta_epoch": "2025-12-13T22:41:22.469280",
        "meta_mean_motion": 1.00273021,
        "meta_eccentricity": 0.00028015,
        "meta_inclination": 4.8539,
        "meta_ra_of_asc_node": 43.6951,
        "meta_arg_of_pericenter": 223.2105,
        "meta_mean_anomaly": 299.816,
        "meta_ephemeris_type": 0,
        "meta_classification_type": "U",
        "meta_norad_cat_id": 28899,
        "meta_element_set_no": 999,
        "meta_rev_at_epoch": 7366,
        "meta_bstar": 0,
        "meta_mean_motion_dot": -2.47e-06,
        "meta_mean_motion_ddot": 0,
        "tle_line1": "1 28899U 05044A   25347.94539895 -.00000247  00000+0  00000+0 0  9994",
        "tle_line2": "2 28899   4.8539  43.6951 0002801 223.2105 299.8160  1.00273021 73664"
      },
      "geometry": {
        "type": "Point",
        "coordinates": [
          86.8003668113247,
          3.3400104581300423
        ]
      }
    },
    {
      "type": "Feature",
      "properties": {
        "norad_id": 29486,
        "name": "GPS BIIRM-2 (PRN 31)",
        "group": "gnss",
        "lat": 47.925601889797115,
        "lon": -149.59460550560436,
        "alt_km": 19899.91329657273,
        "timestamp": "2025-12-14T14:39:29.612345+00:00",
        "meta_object_name": "GPS BIIRM-2 (PRN 31)",
        "meta_object_id": "2006-042A",
        "meta_epoch": "2025-12-13T18:30:29.195136",
        "meta_mean_motion": 2.00554141,
        "meta_eccentricity": 0.01073409,
        "meta_inclination": 54.6943,
        "meta_ra_of_asc_node": 158.6998,
        "meta_arg_of_pericenter": 51.984,
        "meta_mean_anomaly": 127.0201,
        "meta_ephemeris_type": 0,
        "meta_classification_type": "U",
        "meta_norad_cat_id": 29486,
        "meta_element_set_no": 999,
        "meta_rev_at_epoch": 14067,
        "meta_bstar": 0,
        "meta_mean_motion_dot": 1.02e-06,
        "meta_mean_motion_ddot": 0,
        "tle_line1": "1 29486U 06042A   25347.77117124  .00000102  00000+0  00000+0 0  9993",
        "tle_line2": "2 29486  54.6943 158.6998 0107340  51.9840 127.0201  2.00554141140673"
      },
      "geometry": {
        "type": "Point",
        "coordinates": [
          -149.59460550560436,
          47.925601889797115
        ]
      }
    },
    {
      "type": "Feature",
      "properties": {
        "norad_id": 29601,
        "name": "GPS BIIRM-3 (PRN 12)",
        "group": "gnss",
        "lat": 43.042450855509216,
        "lon": 0.44474221524632923,
        "alt_km": 19987.28683423937,
        "timestamp": "2025-12-14T14:39:29.612358+00:00",
        "meta_object_name": "GPS BIIRM-3 (PRN 12)",
        "meta_object_id": "2006-052A",
        "meta_epoch": "2025-12-11T22:46:47.068032",
        "meta_mean_motion": 2.00573524,
        "meta_eccentricity": 0.00877389,
        "meta_inclination": 54.9707,
        "meta_ra_of_asc_node": 221.4296,
        "meta_arg_of_pericenter": 87.4221,
        "meta_mean_anomaly": 273.6564,
        "meta_ephemeris_type": 0,
        "meta_classification_type": "U",
        "meta_norad_cat_id": 29601,
        "meta_element_set_no": 999,
        "meta_rev_at_epoch": 13965,
        "meta_bstar": 0,
        "meta_mean_motion_dot": 9e-08,
        "meta_mean_motion_ddot": 0,
        "tle_line1": "1 29601U 06052A   25345.94915588  .00000009  00000+0  00000+0 0  9996",
        "tle_line2": "2 29601  54.9707 221.4296 0087738  87.4221 273.6564  2.00573524139650"
      },
      "geometry": {
        "type": "Point",
        "coordinates": [
          0.44474221524632923,
          43.042450855509216
        ]
      }
    },
    {
      "type": "Feature",
      "properties": {
        "norad_id": 32260,
        "name": "GPS BIIRM-4 (PRN 15)",
        "group": "gnss",
        "lat": -53.39156244500884,
        "lon": -14.082727825245675,
        "alt_km": 20622.860761457447,
        "timestamp": "2025-12-14T14:39:29.612370+00:00",
        "meta_object_name": "GPS BIIRM-4 (PRN 15)",
        "meta_object_id": "2007-047A",
        "meta_epoch": "2025-12-13T18:00:56.680128",
        "meta_mean_motion": 2.00564495,
        "meta_eccentricity": 0.0164139,
        "meta_inclination": 53.9559,
        "meta_ra_of_asc_node": 87.7167,
        "meta_arg_of_pericenter": 85.2596,
        "meta_mean_anomaly": 276.6041,
        "meta_ephemeris_type": 0,
        "meta_classification_type": "U",
        "meta_norad_cat_id": 32260,
        "meta_element_set_no": 999,
        "meta_rev_at_epoch": 13309,
        "meta_bstar": 0,
        "meta_mean_motion_dot": -4.4e-07,
        "meta_mean_motion_ddot": 0,
        "tle_line1": "1 32260U 07047A   25347.75065602 -.00000044  00000+0  00000+0 0  9990",
        "tle_line2": "2 32260  53.9559  87.7167 0164139  85.2596 276.6041  2.00564495133093"
      },
      "geometry": {
        "type": "Point",
        "coordinates": [
          -14.082727825245675,
          -53.39156244500884
        ]
      }
    },
    {
      "type": "Feature",
      "properties": {
        "norad_id": 32275,
        "name": "COSMOS 2433 (720)",
        "group": "gnss",
        "lat": 65.50881605017533,
        "lon": 45.11640867347158,
        "alt_km": 19136.52493345292,
        "timestamp": "2025-12-14T14:39:29.612382+00:00",
        "meta_object_name": "COSMOS 2433 (720)",
        "meta_object_id": "2007-052A",
        "meta_epoch": "2025-12-10T06:34:19.673184",
        "meta_mean_motion": 2.13103813,
        "meta_eccentricity": 0.00055546,
        "meta_inclination": 65.6847,
        "meta_ra_of_asc_node": 322.2886,
        "meta_arg_of_pericenter": 252.6006,
        "meta_mean_anomaly": 107.3381,
        "meta_ephemeris_type": 0,
        "meta_classification_type": "U",
        "meta_norad_cat_id": 32275,
        "meta_element_set_no": 999,
        "meta_rev_at_epoch": 14103,
        "meta_bstar": 0,
        "meta_mean_motion_dot": -5e-07,
        "meta_mean_motion_ddot": 0,
        "tle_line1": "1 32275U 07052A   25344.27383881 -.00000050  00000+0  00000+0 0  9995",
        "tle_line2": "2 32275  65.6847 322.2886 0005554 252.6006 107.3381  2.13103813141032"
      },
      "geometry": {
        "type": "Point",
        "coordinates": [
          45.11640867347158,
          65.50881605017533
        ]
      }
    },
    {
      "type": "Feature",
      "properties": {
        "norad_id": 32276,
        "name": "COSMOS 2432 (719)",
        "group": "gnss",
        "lat": 28.59200425435799,
        "lon": -23.487454173564213,
        "alt_km": 19121.480557354433,
        "timestamp": "2025-12-14T14:39:29.612394+00:00",
        "meta_object_name": "COSMOS 2432 (719)",
        "meta_object_id": "2007-052B",
        "meta_epoch": "2025-12-13T20:50:15.808128",
        "meta_mean_motion": 2.13103057,
        "meta_eccentricity": 0.00112459,
        "meta_inclination": 65.6982,
        "meta_ra_of_asc_node": 322.2918,
        "meta_arg_of_pericenter": 312.0081,
        "meta_mean_anomaly": 229.9013,
        "meta_ephemeris_type": 0,
        "meta_classification_type": "U",
        "meta_norad_cat_id": 32276,
        "meta_element_set_no": 999,
        "meta_rev_at_epoch": 14113,
        "meta_bstar": 0,
        "meta_mean_motion_dot": -6.1e-07,
        "meta_mean_motion_ddot": 0,
        "tle_line1": "1 32276U 07052B   25347.86823852 -.00000061  00000+0  00000+0 0  9993",
        "tle_line2": "2 32276  65.6982 322.2918 0011245 312.0081 229.9013  2.13103057141131"
      },
      "geometry": {
        "type": "Point",
        "coordinates": [
          -23.487454173564213,
          28.59200425435799
        ]
      }
    },
    {
      "type": "Feature",
      "properties": {
        "norad_id": 32384,
        "name": "GPS BIIRM-5 (PRN 29)",
        "group": "gnss",
        "lat": 25.731307066089517,
        "lon": -58.87320140139668,
        "alt_km": 20233.3737959734,
        "timestamp": "2025-12-14T14:39:29.612405+00:00",
        "meta_object_name": "GPS BIIRM-5 (PRN 29)",
        "meta_object_id": "2007-062A",
        "meta_epoch": "2025-12-13T07:26:31.680096",
        "meta_mean_motion": 2.00577339,
        "meta_eccentricity": 0.00322377,
        "meta_inclination": 55.1816,
        "meta_ra_of_asc_node": 281.623,
        "meta_arg_of_pericenter": 162.4378,
        "meta_mean_anomaly": 10.5516,
        "meta_ephemeris_type": 0,
        "meta_classification_type": "U",
        "meta_norad_cat_id": 32384,
        "meta_element_set_no": 999,
        "meta_rev_at_epoch": 13178,
        "meta_bstar": 0,
        "meta_mean_motion_dot": -8e-07,
        "meta_mean_motion_ddot": 0,
        "tle_line1": "1 32384U 07062A   25347.31008889 -.00000080  00000+0  00000+0 0  9990",
        "tle_line2": "2 32384  55.1816 281.6230 0032237 162.4378  10.5516  2.00577339131782"
      },
      "geometry": {
        "type": "Point",
        "coordinates": [
          -58.87320140139668,
          25.731307066089517
        ]
      }
    }
  ]
}